{
    "links": {
        "self": "http://www.neowsapp.com/rest/v1/neo/3759747?api_key=iIulBulltgU6a56xZRHN4H3l9WmuAYTsLGpBGhQ2"
    },
    "id": "3759747",
    "neo_reference_id": "3759747",
    "name": "(2016 SE2)",
    "designation": "2016 SE2",
    "nasa_jpl_url": "http://ssd.jpl.nasa.gov/sbdb.cgi?sstr=3759747",
    "absolute_magnitude_h": 24.4,
    "estimated_diameter": {
        "kilometers": {
            "estimated_diameter_min": 0.0350392641,
            "estimated_diameter_max": 0.0783501764
        },
        "meters": {
            "estimated_diameter_min": 35.0392641108,
            "estimated_diameter_max": 78.3501764334
        },
        "miles": {
            "estimated_diameter_min": 0.0217723826,
            "estimated_diameter_max": 0.0486845275
        },
        "feet": {
            "estimated_diameter_min": 114.9582192654,
            "estimated_diameter_max": 257.0543928497
        }
    },
    "is_potentially_hazardous_asteroid": false,
    "close_approach_data": [
        {
            "close_approach_date": "2016-09-17",
            "close_approach_date_full": "2016-Sep-17 22:11",
            "epoch_date_close_approach": 1474150260000,
            "relative_velocity": {
                "kilometers_per_second": "8.5677726112",
                "kilometers_per_hour": "30843.9814001806",
                "miles_per_hour": "19165.2505539067"
            },
            "miss_distance": {
                "astronomical": "0.0848539239",
                "lunar": "33.0081763971",
                "kilometers": "12693966.276582093",
                "miles": "7887664.8883871634"
            },
            "orbiting_body": "Earth"
        }
    ],
    "orbital_data": {
        "orbit_id": "4",
        "orbit_determination_date": "2017-04-06 08:23:41",
        "first_observation_date": "2016-09-25",
        "last_observation_date": "2016-10-14",
        "data_arc_in_days": 19,
        "observations_used": 20,
        "orbit_uncertainty": "7",
        "minimum_orbit_intersection": ".0783324",
        "jupiter_tisserand_invariant": "3.014",
        "epoch_osculation": "2459000.5",
        "eccentricity": ".6114134904855449",
        "semi_major_axis": "2.779127700579706",
        "inclination": "9.341162994893661",
        "ascending_node_longitude": "345.69741927",
        "orbital_period": "1692.236980206116",
        "perihelion_distance": "1.079931532663202",
        "perihelion_argument": "11.30652530172507",
        "aphelion_distance": "4.478323868496211",
        "perihelion_time": "2459343.858973012764",
        "mean_anomaly": "286.9551299667619",
        "mean_motion": ".2127361617851842",
        "equinox": "J2000",
        "orbit_class": {
            "orbit_class_type": "AMO",
            "orbit_class_description": "Near-Earth asteroid orbits similar to that of 1221 Amor",
            "orbit_class_range": "1.017 AU < q (perihelion) < 1.3 AU"
        }
    },
    "is_sentry_object": false
}